CCSDS_OMM_VERS = 2.0
CREATION_DATE  = 
ORIGINATOR     = 

OBJECT_NAME    = ATLAS CENTAUR R/B
OBJECT_ID      = 1972-065B
CENTER_NAME    = EARTH
REF_FRAME      = TEME
TIME_SYSTEM    = UTC
MEAN_ELEMENT_THEORY = SGP/SGP4

EPOCH          = 2025-10-31T19:49:19.114752
MEAN_MOTION    = 14.77239910
ECCENTRICITY   = .003375
INCLINATION    = 35.0028
RA_OF_ASC_NODE = 340.6900
ARG_OF_PERICENTER = 5.1339
MEAN_ANOMALY   = 354.9703

EPHEMERIS_TYPE = 0
CLASSIFICATION_TYPE = U
NORAD_CAT_ID   = 6155
ELEMENT_SET_NO = 999
REV_AT_EPOCH   = 82219
BSTAR          = .24344E-3
MEAN_MOTION_DOT = .1746E-4
MEAN_MOTION_DDOT = 0

CCSDS_OMM_VERS = 2.0
CREATION_DATE  = 
ORIGINATOR     = 

OBJECT_NAME    = SL-8 R/B
OBJECT_ID      = 1975-112B
CENTER_NAME    = EARTH
REF_FRAME      = TEME
TIME_SYSTEM    = UTC
MEAN_ELEMENT_THEORY = SGP/SGP4

EPOCH          = 2025-10-31T19:32:55.276224
MEAN_MOTION    = 14.38104018
ECCENTRICITY   = .0015255
INCLINATION    = 74.0599
RA_OF_ASC_NODE = 255.9683
ARG_OF_PERICENTER = 14.5405
MEAN_ANOMALY   = 345.6184

EPHEMERIS_TYPE = 0
CLASSIFICATION_TYPE = U
NORAD_CAT_ID   = 8459
ELEMENT_SET_NO = 999
REV_AT_EPOCH   = 61334
BSTAR          = .13563E-3
MEAN_MOTION_DOT = .385E-5
MEAN_MOTION_DDOT = 0

CCSDS_OMM_VERS = 2.0
CREATION_DATE  = 
ORIGINATOR     = 

OBJECT_NAME    = SL-3 R/B
OBJECT_ID      = 1977-057B
CENTER_NAME    = EARTH
REF_FRAME      = TEME
TIME_SYSTEM    = UTC
MEAN_ELEMENT_THEORY = SGP/SGP4

EPOCH          = 2025-10-31T18:39:31.578912
MEAN_MOTION    = 15.41619859
ECCENTRICITY   = .0008473
INCLINATION    = 97.5676
RA_OF_ASC_NODE = 106.5191
ARG_OF_PERICENTER = 35.9007
MEAN_ANOMALY   = 324.2807

EPHEMERIS_TYPE = 0
CLASSIFICATION_TYPE = U
NORAD_CAT_ID   = 10114
ELEMENT_SET_NO = 999
REV_AT_EPOCH   = 64844
BSTAR          = .32277E-3
MEAN_MOTION_DOT = .13519E-3
MEAN_MOTION_DDOT = 0

CCSDS_OMM_VERS = 2.0
CREATION_DATE  = 
ORIGINATOR     = 

OBJECT_NAME    = SEASAT 1
OBJECT_ID      = 1978-064A
CENTER_NAME    = EARTH
REF_FRAME      = TEME
TIME_SYSTEM    = UTC
MEAN_ELEMENT_THEORY = SGP/SGP4

EPOCH          = 2025-10-31T16:34:48.873216
MEAN_MOTION    = 14.45989385
ECCENTRICITY   = .0002582
INCLINATION    = 108.0049
RA_OF_ASC_NODE = 214.8357
ARG_OF_PERICENTER = 261.5427
MEAN_ANOMALY   = 98.5425

EPHEMERIS_TYPE = 0
CLASSIFICATION_TYPE = U
NORAD_CAT_ID   = 10967
ELEMENT_SET_NO = 999
REV_AT_EPOCH   = 48786
BSTAR          = .18761E-3
MEAN_MOTION_DOT = .532E-5
MEAN_MOTION_DDOT = 0

CCSDS_OMM_VERS = 2.0
CREATION_DATE  = 
ORIGINATOR     = 

OBJECT_NAME    = SL-14 R/B
OBJECT_ID      = 1979-011B
CENTER_NAME    = EARTH
REF_FRAME      = TEME
TIME_SYSTEM    = UTC
MEAN_ELEMENT_THEORY = SGP/SGP4

EPOCH          = 2025-10-31T19:08:07.915776
MEAN_MOTION    = 14.91690396
ECCENTRICITY   = .0017395
INCLINATION    = 82.5262
RA_OF_ASC_NODE = 218.8127
ARG_OF_PERICENTER = 124.4753
MEAN_ANOMALY   = 235.8112

EPHEMERIS_TYPE = 0
CLASSIFICATION_TYPE = U
NORAD_CAT_ID   = 11267
ELEMENT_SET_NO = 999
REV_AT_EPOCH   = 50956
BSTAR          = .87153E-4
MEAN_MOTION_DOT = .904E-5
MEAN_MOTION_DDOT = 0

CCSDS_OMM_VERS = 2.0
CREATION_DATE  = 
ORIGINATOR     = 

OBJECT_NAME    = SL-8 R/B
OBJECT_ID      = 1979-089B
CENTER_NAME    = EARTH
REF_FRAME      = TEME
TIME_SYSTEM    = UTC
MEAN_ELEMENT_THEORY = SGP/SGP4

EPOCH          = 2025-10-31T12:35:10.320000
MEAN_MOTION    = 14.42240302
ECCENTRICITY   = .0015559
INCLINATION    = 74.0689
RA_OF_ASC_NODE = 330.1144
ARG_OF_PERICENTER = 180.0942
MEAN_ANOMALY   = 180.0214

EPHEMERIS_TYPE = 0
CLASSIFICATION_TYPE = U
NORAD_CAT_ID   = 11574
ELEMENT_SET_NO = 999
REV_AT_EPOCH   = 41748
BSTAR          = .13295E-3
MEAN_MOTION_DOT = .413E-5
MEAN_MOTION_DDOT = 0

CCSDS_OMM_VERS = 2.0
CREATION_DATE  = 
ORIGINATOR     = 

OBJECT_NAME    = SL-14 R/B
OBJECT_ID      = 1980-005B
CENTER_NAME    = EARTH
REF_FRAME      = TEME
TIME_SYSTEM    = UTC
MEAN_ELEMENT_THEORY = SGP/SGP4

EPOCH          = 2025-10-31T19:01:33.403872
MEAN_MOTION    = 14.90703835
ECCENTRICITY   = .0014655
INCLINATION    = 82.5144
RA_OF_ASC_NODE = 69.4719
ARG_OF_PERICENTER = 229.9837
MEAN_ANOMALY   = 130.0096

EPHEMERIS_TYPE = 0
CLASSIFICATION_TYPE = U
NORAD_CAT_ID   = 11672
ELEMENT_SET_NO = 999
REV_AT_EPOCH   = 45728
BSTAR          = .10647E-3
MEAN_MOTION_DOT = .1071E-4
MEAN_MOTION_DDOT = 0

CCSDS_OMM_VERS = 2.0
CREATION_DATE  = 
ORIGINATOR     = 

OBJECT_NAME    = SL-8 R/B
OBJECT_ID      = 1981-003B
CENTER_NAME    = EARTH
REF_FRAME      = TEME
TIME_SYSTEM    = UTC
MEAN_ELEMENT_THEORY = SGP/SGP4

EPOCH          = 2025-10-31T17:50:17.901600
MEAN_MOTION    = 15.04754340
ECCENTRICITY   = .0284233
INCLINATION    = 82.9329
RA_OF_ASC_NODE = 48.7850
ARG_OF_PERICENTER = 265.4766
MEAN_ANOMALY   = 91.3947

EPHEMERIS_TYPE = 0
CLASSIFICATION_TYPE = U
NORAD_CAT_ID   = 12139
ELEMENT_SET_NO = 999
REV_AT_EPOCH   = 29524
BSTAR          = .71072E-3
MEAN_MOTION_DOT = .25339E-3
MEAN_MOTION_DDOT = 0

CCSDS_OMM_VERS = 2.0
CREATION_DATE  = 
ORIGINATOR     = 

OBJECT_NAME    = SL-3 R/B
OBJECT_ID      = 1981-046B
CENTER_NAME    = EARTH
REF_FRAME      = TEME
TIME_SYSTEM    = UTC
MEAN_ELEMENT_THEORY = SGP/SGP4

EPOCH          = 2025-10-31T19:43:58.505088
MEAN_MOTION    = 15.38312366
ECCENTRICITY   = .0020854
INCLINATION    = 81.2311
RA_OF_ASC_NODE = 84.0269
ARG_OF_PERICENTER = 107.3074
MEAN_ANOMALY   = 253.0450

EPHEMERIS_TYPE = 0
CLASSIFICATION_TYPE = U
NORAD_CAT_ID   = 12465
ELEMENT_SET_NO = 999
REV_AT_EPOCH   = 41859
BSTAR          = .39838E-3
MEAN_MOTION_DOT = .15192E-3
MEAN_MOTION_DDOT = 0

CCSDS_OMM_VERS = 2.0
CREATION_DATE  = 
ORIGINATOR     = 

OBJECT_NAME    = METEOR PRIRODA
OBJECT_ID      = 1981-065A
CENTER_NAME    = EARTH
REF_FRAME      = TEME
TIME_SYSTEM    = UTC
MEAN_ELEMENT_THEORY = SGP/SGP4

EPOCH          = 2025-10-31T19:05:54.866688
MEAN_MOTION    = 15.99511957
ECCENTRICITY   = .0001555
INCLINATION    = 97.4649
RA_OF_ASC_NODE = 7.9999
ARG_OF_PERICENTER = 301.7100
MEAN_ANOMALY   = 58.4026

EPHEMERIS_TYPE = 0
CLASSIFICATION_TYPE = U
NORAD_CAT_ID   = 12585
ELEMENT_SET_NO = 999
REV_AT_EPOCH   = 42407
BSTAR          = .78352E-3
MEAN_MOTION_DOT = .385421E-2
MEAN_MOTION_DDOT = .64733E-4

CCSDS_OMM_VERS = 2.0
CREATION_DATE  = 
ORIGINATOR     = 

OBJECT_NAME    = SL-3 R/B
OBJECT_ID      = 1981-103B
CENTER_NAME    = EARTH
REF_FRAME      = TEME
TIME_SYSTEM    = UTC
MEAN_ELEMENT_THEORY = SGP/SGP4

EPOCH          = 2025-10-31T18:55:09.240096
MEAN_MOTION    = 15.19519024
ECCENTRICITY   = .0017645
INCLINATION    = 81.1624
RA_OF_ASC_NODE = 4.4574
ARG_OF_PERICENTER = 19.9436
MEAN_ANOMALY   = 340.2480

EPHEMERIS_TYPE = 0
CLASSIFICATION_TYPE = U
NORAD_CAT_ID   = 12904
ELEMENT_SET_NO = 999
REV_AT_EPOCH   = 95364
BSTAR          = .30776E-3
MEAN_MOTION_DOT = .6587E-4
MEAN_MOTION_DDOT = 0

CCSDS_OMM_VERS = 2.0
CREATION_DATE  = 
ORIGINATOR     = 

OBJECT_NAME    = SL-3 R/B
OBJECT_ID      = 1982-013B
CENTER_NAME    = EARTH
REF_FRAME      = TEME
TIME_SYSTEM    = UTC
MEAN_ELEMENT_THEORY = SGP/SGP4

EPOCH          = 2025-10-31T19:08:44.521728
MEAN_MOTION    = 15.20541654
ECCENTRICITY   = .0021538
INCLINATION    = 81.1735
RA_OF_ASC_NODE = 311.6918
ARG_OF_PERICENTER = 252.8408
MEAN_ANOMALY   = 107.0465

EPHEMERIS_TYPE = 0
CLASSIFICATION_TYPE = U
NORAD_CAT_ID   = 13068
ELEMENT_SET_NO = 999
REV_AT_EPOCH   = 38475
BSTAR          = .24081E-3
MEAN_MOTION_DOT = .5325E-4
MEAN_MOTION_DDOT = 0

