ATLAS CENTAUR R/B       
1 06155U 72065B   25304.82591568  .00001746  00000+0  24344-3 0  9992
2 06155  35.0028 340.6900 0033750   5.1339 354.9703 14.77239910822194
SL-8 R/B                
1 08459U 75112B   25304.81452866  .00000385  00000+0  13563-3 0  9992
2 08459  74.0599 255.9683 0015255  14.5405 345.6184 14.38104018613345
SL-3 R/B                
1 10114U 77057B   25304.77744883  .00013519  00000+0  32277-3 0  9997
2 10114  97.5676 106.5191 0008473  35.9007 324.2807 15.41619859648449
SEASAT 1                
1 10967U 78064A   25304.69084344  .00000532  00000+0  18761-3 0  9995
2 10967 108.0049 214.8357 0002582 261.5427  98.5425 14.45989385487863
SL-14 R/B               
1 11267U 79011B   25304.79731384  .00000904  00000+0  87153-4 0  9991
2 11267  82.5262 218.8127 0017395 124.4753 235.8112 14.91690396509569
SL-8 R/B                
1 11574U 79089B   25304.52442500  .00000413  00000+0  13295-3 0  9997
2 11574  74.0689 330.1144 0015559 180.0942 180.0214 14.42240302417481
SL-14 R/B               
1 11672U 80005B   25304.79274773  .00001071  00000+0  10647-3 0  9999
2 11672  82.5144  69.4719 0014655 229.9837 130.0096 14.90703835457285
SL-8 R/B                
1 12139U 81003B   25304.74326275  .00025339  00000+0  71072-3 0  9999
2 12139  82.9329  48.7850 0284233 265.4766  91.3947 15.04754340295249
SL-3 R/B                
1 12465U 81046B   25304.82220492  .00015192  00000+0  39838-3 0  9991
2 12465  81.2311  84.0269 0020854 107.3074 253.0450 15.38312366418590
METEOR PRIRODA          
1 12585U 81065A   25304.79577392  .00385421  64733-4  78352-3 0  9992
2 12585  97.4649   7.9999 0001555 301.7100  58.4026 15.99511957424077
SL-3 R/B                
1 12904U 81103B   25304.78830139  .00006587  00000+0  30776-3 0  9993
2 12904  81.1624   4.4574 0017645  19.9436 340.2480 15.19519024953644
SL-3 R/B                
1 13068U 82013B   25304.79773752  .00005325  00000+0  24081-3 0  9995
2 13068  81.1735 311.6918 0021538 252.8408 107.0465 15.20541654384755
